[{"OBJECT_NAME":"STARLINK-32148","OBJECT_ID":"2024-131J","EPOCH":"2025-11-14T01:15:32.226912","MEAN_MOTION":15.3022015,"ECCENTRICITY":0.00013305,"INCLINATION":53.1603,"RA_OF_ASC_NODE":229.581,"ARG_OF_PERICENTER":87.9633,"MEAN_ANOMALY":272.152,"EPHEMERIS_TYPE":0,"CLASSIFICATION_TYPE":"U","NORAD_CAT_ID":60263,"ELEMENT_SET_NO":999,"REV_AT_EPOCH":7406,"BSTAR":0.00019297916,"MEAN_MOTION_DOT":5.364e-5,"MEAN_MOTION_DDOT":0},{"OBJECT_NAME":"STARLINK-32121","OBJECT_ID":"2024-131K","EPOCH":"2025-11-14T01:20:08.252448","MEAN_MOTION":15.30182044,"ECCENTRICITY":0.00014202,"INCLINATION":53.1581,"RA_OF_ASC_NODE":229.6096,"ARG_OF_PERICENTER":84.7501,"MEAN_ANOMALY":275.3661,"EPHEMERIS_TYPE":0,"CLASSIFICATION_TYPE":"U","NORAD_CAT_ID":60264,"ELEMENT_SET_NO":999,"REV_AT_EPOCH":7406,"BSTAR":6.7290164e-5,"MEAN_MOTION_DOT":1.633e-5,"MEAN_MOTION_DDOT":0},{"OBJECT_NAME":"STARLINK-32120","OBJECT_ID":"2024-131L","EPOCH":"2025-11-14T03:35:12.739200","MEAN_MOTION":15.30203712,"ECCENTRICITY":9.852e-5,"INCLINATION":53.1592,"RA_OF_ASC_NODE":229.4747,"ARG_OF_PERICENTER":98.5659,"MEAN_ANOMALY":261.5453,"EPHEMERIS_TYPE":0,"CLASSIFICATION_TYPE":"U","NORAD_CAT_ID":60265,"ELEMENT_SET_NO":999,"REV_AT_EPOCH":7407,"BSTAR":0.00016710744,"MEAN_MOTION_DOT":4.594e-5,"MEAN_MOTION_DDOT":0},{"OBJECT_NAME":"STARLINK-32205","OBJECT_ID":"2024-131M","EPOCH":"2025-11-14T04:46:29.672256","MEAN_MOTION":15.30175414,"ECCENTRICITY":0.00013042,"INCLINATION":53.1607,"RA_OF_ASC_NODE":229.084,"ARG_OF_PERICENTER":113.4255,"MEAN_ANOMALY":246.6883,"EPHEMERIS_TYPE":0,"CLASSIFICATION_TYPE":"U","NORAD_CAT_ID":60266,"ELEMENT_SET_NO":999,"REV_AT_EPOCH":7403,"BSTAR":-1.8837326e-5,"MEAN_MOTION_DOT":-9.17e-6,"MEAN_MOTION_DDOT":0},{"OBJECT_NAME":"STARLINK-32158","OBJECT_ID":"2024-131N","EPOCH":"2025-11-14T03:59:23.339040","MEAN_MOTION":15.30173413,"ECCENTRICITY":0.0001403,"INCLINATION":53.1613,"RA_OF_ASC_NODE":228.8685,"ARG_OF_PERICENTER":85.1571,"MEAN_ANOMALY":274.959,"EPHEMERIS_TYPE":0,"CLASSIFICATION_TYPE":"U","NORAD_CAT_ID":60267,"ELEMENT_SET_NO":999,"REV_AT_EPOCH":7393,"BSTAR":-6.4097344e-5,"MEAN_MOTION_DOT":-2.255e-5,"MEAN_MOTION_DDOT":0},{"OBJECT_NAME":"STARLINK-32167","OBJECT_ID":"2024-131P","EPOCH":"2025-11-14T03:38:07.192032","MEAN_MOTION":15.30170574,"ECCENTRICITY":0.00017071,"INCLINATION":53.1601,"RA_OF_ASC_NODE":228.7918,"ARG_OF_PERICENTER":69.9073,"MEAN_ANOMALY":290.2111,"EPHEMERIS_TYPE":0,"CLASSIFICATION_TYPE":"U","NORAD_CAT_ID":60268,"ELEMENT_SET_NO":999,"REV_AT_EPOCH":7403,"BSTAR":-9.9732677e-5,"MEAN_MOTION_DOT":-3.309e-5,"MEAN_MOTION_DDOT":0},{"OBJECT_NAME":"STARLINK-32144","OBJECT_ID":"2024-131Q","EPOCH":"2025-11-14T04:19:08.145696","MEAN_MOTION":15.30169506,"ECCENTRICITY":5.957e-5,"INCLINATION":53.1601,"RA_OF_ASC_NODE":228.9553,"ARG_OF_PERICENTER":51.5662,"MEAN_ANOMALY":308.5392,"EPHEMERIS_TYPE":0,"CLASSIFICATION_TYPE":"U","NORAD_CAT_ID":60269,"ELEMENT_SET_NO":999,"REV_AT_EPOCH":7408,"BSTAR":3.6368466e-5,"MEAN_MOTION_DOT":7.18e-6,"MEAN_MOTION_DDOT":0},{"OBJECT_NAME":"STARLINK-32211","OBJECT_ID":"2024-131R","EPOCH":"2025-11-14T03:26:09.076704","MEAN_MOTION":15.30142599,"ECCENTRICITY":0.00012272,"INCLINATION":53.1609,"RA_OF_ASC_NODE":229.4475,"ARG_OF_PERICENTER":121.5922,"MEAN_ANOMALY":238.5199,"EPHEMERIS_TYPE":0,"CLASSIFICATION_TYPE":"U","NORAD_CAT_ID":60270,"ELEMENT_SET_NO":999,"REV_AT_EPOCH":7402,"BSTAR":-0.00015033245,"MEAN_MOTION_DOT":-4.801e-5,"MEAN_MOTION_DDOT":0},{"OBJECT_NAME":"STARLINK-32164","OBJECT_ID":"2024-131S","EPOCH":"2025-11-14T03:32:11.897088","MEAN_MOTION":15.30165148,"ECCENTRICITY":0.00012181,"INCLINATION":53.1596,"RA_OF_ASC_NODE":229.4618,"ARG_OF_PERICENTER":85.4246,"MEAN_ANOMALY":274.6893,"EPHEMERIS_TYPE":0,"CLASSIFICATION_TYPE":"U","NORAD_CAT_ID":60271,"ELEMENT_SET_NO":999,"REV_AT_EPOCH":7392,"BSTAR":2.322576e-6,"MEAN_MOTION_DOT":-2.9e-6,"MEAN_MOTION_DDOT":0},{"OBJECT_NAME":"STARLINK-32128","OBJECT_ID":"2024-131T","EPOCH":"2025-11-14T03:54:52.160544","MEAN_MOTION":15.30126462,"ECCENTRICITY":0.00014248,"INCLINATION":53.1605,"RA_OF_ASC_NODE":228.8523,"ARG_OF_PERICENTER":72.8715,"MEAN_ANOMALY":287.2442,"EPHEMERIS_TYPE":0,"CLASSIFICATION_TYPE":"U","NORAD_CAT_ID":60272,"ELEMENT_SET_NO":999,"REV_AT_EPOCH":7403,"BSTAR":-0.00019059911,"MEAN_MOTION_DOT":-5.987e-5,"MEAN_MOTION_DDOT":0},{"OBJECT_NAME":"STARLINK-32206","OBJECT_ID":"2024-131U","EPOCH":"2025-11-14T03:16:59.668608","MEAN_MOTION":15.30183247,"ECCENTRICITY":0.00014398,"INCLINATION":53.1598,"RA_OF_ASC_NODE":229.4083,"ARG_OF_PERICENTER":98.066,"MEAN_ANOMALY":262.0505,"EPHEMERIS_TYPE":0,"CLASSIFICATION_TYPE":"U","NORAD_CAT_ID":60273,"ELEMENT_SET_NO":999,"REV_AT_EPOCH":7402,"BSTAR":0.00018297784,"MEAN_MOTION_DOT":5.061e-5,"MEAN_MOTION_DDOT":0},{"OBJECT_NAME":"STARLINK-32155","OBJECT_ID":"2024-131V","EPOCH":"2025-11-13T23:59:44.777184","MEAN_MOTION":15.30193352,"ECCENTRICITY":7.559e-5,"INCLINATION":53.1613,"RA_OF_ASC_NODE":229.9639,"ARG_OF_PERICENTER":102.417,"MEAN_ANOMALY":257.6916,"EPHEMERIS_TYPE":0,"CLASSIFICATION_TYPE":"U","NORAD_CAT_ID":60274,"ELEMENT_SET_NO":999,"REV_AT_EPOCH":7390,"BSTAR":6.7964206e-5,"MEAN_MOTION_DOT":1.654e-5,"MEAN_MOTION_DDOT":0},{"OBJECT_NAME":"STARLINK-32152","OBJECT_ID":"2024-131W","EPOCH":"2025-11-14T03:50:14.666208","MEAN_MOTION":15.30193931,"ECCENTRICITY":0.00016266,"INCLINATION":53.1608,"RA_OF_ASC_NODE":228.8297,"ARG_OF_PERICENTER":81.1723,"MEAN_ANOMALY":278.9462,"EPHEMERIS_TYPE":0,"CLASSIFICATION_TYPE":"U","NORAD_CAT_ID":60275,"ELEMENT_SET_NO":999,"REV_AT_EPOCH":7393,"BSTAR":8.6046867e-5,"MEAN_MOTION_DOT":2.189e-5,"MEAN_MOTION_DDOT":0},{"OBJECT_NAME":"STARLINK-32154","OBJECT_ID":"2024-131X","EPOCH":"2025-11-14T00:33:01.822464","MEAN_MOTION":15.30177025,"ECCENTRICITY":0.00018899,"INCLINATION":53.16,"RA_OF_ASC_NODE":229.3979,"ARG_OF_PERICENTER":83.3744,"MEAN_ANOMALY":276.7472,"EPHEMERIS_TYPE":0,"CLASSIFICATION_TYPE":"U","NORAD_CAT_ID":60276,"ELEMENT_SET_NO":999,"REV_AT_EPOCH":7401,"BSTAR":4.3678403e-5,"MEAN_MOTION_DOT":9.33e-6,"MEAN_MOTION_DDOT":0},{"OBJECT_NAME":"STARLINK-32135","OBJECT_ID":"2024-131Y","EPOCH":"2025-11-14T04:05:27.032064","MEAN_MOTION":15.30185097,"ECCENTRICITY":0.00011102,"INCLINATION":53.1595,"RA_OF_ASC_NODE":228.8925,"ARG_OF_PERICENTER":79.9146,"MEAN_ANOMALY":280.198,"EPHEMERIS_TYPE":0,"CLASSIFICATION_TYPE":"U","NORAD_CAT_ID":60277,"ELEMENT_SET_NO":999,"REV_AT_EPOCH":7403,"BSTAR":6.696438e-5,"MEAN_MOTION_DOT":1.624e-5,"MEAN_MOTION_DDOT":0},{"OBJECT_NAME":"STARLINK-32156","OBJECT_ID":"2024-132A","EPOCH":"2025-11-14T00:43:40.173312","MEAN_MOTION":15.30279701,"ECCENTRICITY":0.00013261,"INCLINATION":53.159,"RA_OF_ASC_NODE":229.5712,"ARG_OF_PERICENTER":93.0343,"MEAN_ANOMALY":267.0809,"EPHEMERIS_TYPE":0,"CLASSIFICATION_TYPE":"U","NORAD_CAT_ID":60278,"ELEMENT_SET_NO":999,"REV_AT_EPOCH":7507,"BSTAR":0.0026279641,"MEAN_MOTION_DOT":0.00078493,"MEAN_MOTION_DDOT":0}]
