STARLINK-32148          
1 60263U 24131J   25318.05245633  .00005364  00000+0  19298-3 0  9994
2 60263  53.1603 229.5810 0001330  87.9633 272.1520 15.30220150 74062
STARLINK-32121          
1 60264U 24131K   25318.05565107  .00001633  00000+0  67290-4 0  9997
2 60264  53.1581 229.6096 0001420  84.7501 275.3661 15.30182044 74064
STARLINK-32120          
1 60265U 24131L   25318.14945300  .00004594  00000+0  16711-3 0  9995
2 60265  53.1592 229.4747 0000985  98.5659 261.5453 15.30203712 74073
STARLINK-32205          
1 60266U 24131M   25318.19895454 -.00000917  00000+0 -18837-4 0  9994
2 60266  53.1607 229.0840 0001304 113.4255 246.6883 15.30175414 74030
STARLINK-32158          
1 60267U 24131N   25318.16624235 -.00002255  00000+0 -64097-4 0  9995
2 60267  53.1613 228.8685 0001403  85.1571 274.9590 15.30173413 73932
STARLINK-32167          
1 60268U 24131P   25318.15147213 -.00003309  00000+0 -99733-4 0  9997
2 60268  53.1601 228.7918 0001707  69.9073 290.2111 15.30170574 74039
STARLINK-32144          
1 60269U 24131Q   25318.17995539  .00000718  00000+0  36368-4 0  9996
2 60269  53.1601 228.9553 0000595  51.5662 308.5392 15.30169506 74084
STARLINK-32211          
1 60270U 24131R   25318.14316061 -.00004801  00000+0 -15033-3 0  9996
2 60270  53.1609 229.4475 0001227 121.5922 238.5199 15.30142599 74027
STARLINK-32164          
1 60271U 24131S   25318.14735992 -.00000290  00000+0  23226-5 0  9997
2 60271  53.1596 229.4618 0001218  85.4246 274.6893 15.30165148 73924
STARLINK-32128          
1 60272U 24131T   25318.16310371 -.00005987  00000+0 -19060-3 0  9998
2 60272  53.1605 228.8523 0001424  72.8715 287.2442 15.30126462 74033
STARLINK-32206          
1 60273U 24131U   25318.13680172  .00005061  00000+0  18298-3 0  9998
2 60273  53.1598 229.4083 0001439  98.0660 262.0505 15.30183247 74022
STARLINK-32155          
1 60274U 24131V   25317.99982381  .00001654  00000+0  67964-4 0  9998
2 60274  53.1613 229.9639 0000755 102.4170 257.6916 15.30193352 73909
STARLINK-32152          
1 60275U 24131W   25318.15989197  .00002189  00000+0  86047-4 0  9997
2 60275  53.1608 228.8297 0001626  81.1723 278.9462 15.30193931 73935
STARLINK-32154          
1 60276U 24131X   25318.02293776  .00000933  00000+0  43678-4 0  9993
2 60276  53.1600 229.3979 0001889  83.3744 276.7472 15.30177025 74012
STARLINK-32135          
1 60277U 24131Y   25318.17045176  .00001624  00000+0  66964-4 0  9990
2 60277  53.1595 228.8925 0001110  79.9146 280.1980 15.30185097 74038
STARLINK-32156          
1 60278U 24132A   25318.03032608  .00078493  00000+0  26280-2 0  9996
2 60278  53.1590 229.5712 0001326  93.0343 267.0809 15.30279701 75076
